SHIKONGXING 01          
1 65712U 25214A   25294.92053390  .00004247  00000+0  44561-3 0  9997
2 65712  49.9865 333.2984 0013527  40.2747 319.9194 14.91250734  4127
GEESAT-6 01             
1 65713U 25214B   25294.90121383  .00003594  00000+0  42752-3 0  9998
2 65713  49.9865 333.9091 0014172  42.7977 317.4063 14.86482579  4118
GEESAT-6 02             
1 65714U 25214C   25293.95830236  .00004011  00000+0  47274-3 0  9996
2 65714  49.9849 338.2753 0012946  25.9697 334.1889 14.86597242  3972
GEESAT-6 03             
1 65715U 25214D   25294.92947606  .00003150  00000+0  37657-3 0  9992
2 65715  49.9834 333.3450 0015698  35.7383 324.4604 14.86623153  4121
GEESAT-6 04             
1 65716U 25214E   25294.93654190  .00004130  00000+0  48610-3 0  9997
2 65716  49.9865 333.4001 0011246  50.3580 309.8350 14.86598122  4128
GEESAT-6 05             
1 65717U 25214F   25294.95923300  .00003834  00000+0  45276-3 0  9997
2 65717  49.9818 333.5300 0014463  36.5123 323.6800 14.86611196  4124
GEESAT-6 06             
1 65718U 25214G   25294.91524122  .00004596  00000+0  47989-3 0  9992
2 65718  49.9900 333.2740 0012112  35.1346 325.0392 14.91283052  4127
GEESAT-6 07             
1 65719U 25214H   25291.62929233  .00005501  00000+0  59869-3 0  9997
2 65719  49.9703 348.6491 0015441  50.4603 309.7699 14.89225762  3642
GEESAT-6 08             
1 65720U 25214J   25294.94408780  .00003732  00000+0  44150-3 0  9997
2 65720  49.9904 333.4548 0015637  31.8137 328.3744 14.86597815  4124
GEESAT-6 09             
1 65721U 25214K   25294.95123242  .00003743  00000+0  45126-3 0  9992
2 65721  49.9826 333.4807 0011733  21.2038 338.9385 14.85824097  4124
GEESAT-6 10             
1 65722U 25214L   25294.97406090  .00003725  00000+0  44103-3 0  9994
2 65722  49.9890 333.6372 0010825  33.8581 326.3048 14.86602968  4127
GEESAT-6 11             
1 65723U 25214M   25292.96830535  .00006486  00000+0  66593-3 0  9991
2 65723  49.9858 342.3563 0013616  28.2268 331.9409 14.91338114  3837
DRAGONFLY               
1 65729U 98067XH  25294.59384750  .00112170  00000+0  14869-2 0  9993
2 65729  51.6327  39.5789 0001637  40.2222 319.8891 15.57404661  5008
1998-067XJ              
1 65730U 98067XJ  25294.54714147  .00228098  00000+0  24275-2 0  9996
2 65730  51.6311  39.2651 0008360 355.3011   4.7904 15.62688109  5006
1998-067XK              
1 65731U 98067XK  25294.54222771  .00079732  00000+0  11194-2 0  9999
2 65731  51.6332  39.9842 0003523 357.4308   2.6665 15.56011505  4998
RSP-03                  
1 65732U 98067XL  25294.60027294  .00095217  00000+0  12993-2 0  9994
2 65732  51.6326  39.6216 0004058 358.6592   1.4388 15.56698892  5019
GHS-01                  
1 65733U 98067XM  25294.58964633  .00121808  00000+0  15842-2 0  9991
2 65733  51.6341  39.5514 0001959  29.1737 330.9364 15.57871320  5019
STARLINK-34086          
1 65734U 25216A   25294.91667824  .00067477  00000+0  16851-2 0  9999
2 65734  53.1601 259.7861 0001482 110.5449 273.3980 15.39563813  5236
STARLINK-35099          
1 65735U 25216B   25294.88441960  .00132618  00000+0  24021-2 0  9995
2 65735  53.1591 259.6292 0004944 105.5769 254.5786 15.48702479  5235
STARLINK-35167          
1 65736U 25216C   25294.89384101  .00031078  00000+0  78688-3 0  9997
2 65736  53.1600 259.6896 0001969 111.6748 248.4467 15.39498144  5268
STARLINK-35121          
1 65737U 25216D   25294.94801521  .00135813  00000+0  24055-2 0  9994
2 65737  53.1590 259.3149 0001244  91.0901 269.0250 15.49335189  5273
STARLINK-35108          
1 65738U 25216E   25294.91667824  .00080567  00000+0  20100-2 0  9990
2 65738  53.1612 259.6831 0001546 108.6058 326.9717 15.39511774  5392
STARLINK-35106          
1 65739U 25216F   25294.94732821  .00132171  00000+0  23428-2 0  9999
2 65739  53.1587 259.3099 0001210 109.6336 250.4804 15.49330120  5242
STARLINK-35130          
1 65740U 25216G   25294.91667824  .00089790  00000+0  22354-2 0  9993
2 65740  53.1599 259.5282 0001611  75.6416  77.0259 15.39523975  5393
STARLINK-35284          
1 65741U 25216H   25294.91667824  .00065730  00000+0  16418-2 0  9996
2 65741  53.1608 259.7334 0001564  83.6534 326.0240 15.39569832  5357
STARLINK-35316          
1 65742U 25216J   25294.91667824 -.00118482  00000+0 -29890-2 0  9990
2 65742  53.1610 259.6309 0001324  97.4180   3.6398 15.39713298  5355
STARLINK-35319          
1 65743U 25216K   25294.88146137 -.00122375  00000+0 -22353-2 0  9999
2 65743  53.1590 259.6085 0000722 109.2837 250.8251 15.49202280  5311
STARLINK-35173          
1 65744U 25216L   25293.46198580 -.00130570  00000+0 -24073-2 0  9999
2 65744  53.1596 266.3930 0000859  78.6939 281.4166 15.48973807  5094
STARLINK-34808          
1 65745U 25216M   25294.88075790  .00084622  00000+0  15127-2 0  9998
2 65745  53.1591 259.6042 0001602 112.4801 247.6378 15.49317288  5232
STARLINK-34704          
1 65746U 25216N   25294.94458070  .00138666  00000+0  24547-2 0  9996
2 65746  53.1589 259.2916 0001462  92.0980 268.0197 15.49338958  5267
STARLINK-35214          
1 65747U 25216P   25294.88041623  .00085374  00000+0  15251-2 0  9991
2 65747  53.1589 259.6026 0001273  94.2096 265.9059 15.49332428  5265
STARLINK-35265          
1 65748U 25216Q   25294.91667824  .00060643  00000+0  15163-2 0  9997
2 65748  53.1612 259.6333 0001322  64.8952  34.4267 15.39573310  5359
STARLINK-35288          
1 65749U 25216R   25294.91667824 -.00112768  00000+0 -28430-2 0  9997
2 65749  53.1610 259.5814 0001218 110.4475  14.5783 15.39705902  5292
STARLINK-35165          
1 65750U 25216S   25294.91667824  .00078934  00000+0  19682-2 0  9992
2 65750  53.1596 259.4789 0001002 118.2050  58.3771 15.39538246  5291
STARLINK-35260          
1 65751U 25216T   25294.87846719  .00093403  00000+0  18653-2 0  9995
2 65751  53.1589 259.5871 0002316 120.5288 239.5949 15.46076963  5263
STARLINK-34893          
1 65752U 25216U   25294.91667824 -.00135104  00000+0 -34178-2 0  9996
2 65752  53.1615 259.6846 0001227 102.4951 331.0502 15.39708424  5239
STARLINK-34894          
1 65753U 25216V   25294.91667824  .00060502  00000+0  15125-2 0  9995
2 65753  53.1601 259.5296 0001539 102.0659  48.7379 15.39579998  5326
STARLINK-35287          
1 65754U 25216W   25294.94186904 -.00122265  00000+0 -22396-2 0  9999
2 65754  53.1586 259.2729 0002246 125.4702 234.6517 15.49117400  5238
STARLINK-35294          
1 65755U 25216X   25294.91667824 -.02050277  00000+0 -46817-1 0  9990
2 65755  53.1594 259.4061 0001479 102.4189 110.4598 15.45797524  5350
STARLINK-35275          
1 65756U 25216Y   25294.94080270  .00113501  00000+0  20172-2 0  9991
2 65756  53.1588 259.2655 0001363  90.2561 269.8604 15.49338158  5277
STARLINK-35211          
1 65757U 25216Z   25294.94045470  .00122999  00000+0  21849-2 0  9998
2 65757  53.1587 259.2627 0001286  97.4775 262.6380 15.49309767  5272
STARLINK-35313          
1 65758U 25216AA  25294.87560695  .00107281  00000+0  19076-2 0  9998
2 65758  53.1590 259.5700 0001396 108.6772 251.4389 15.49353038  5226
STARLINK-34692          
1 65759U 25216AB  25294.93977148  .00141600  00000+0  25058-2 0  9991
2 65759  53.1587 259.2584 0001353  93.8747 266.2417 15.49335959  5239
STARLINK-34890          
1 65760U 25216AC  25294.94148913  .00109622  00000+0  19491-2 0  9996
2 65760  53.1587 259.2701 0001568 101.6171 258.5014 15.49343908  5262
STARLINK-34889          
1 65761U 25216AD  25294.94114610  .00103192  00000+0  18373-2 0  9998
2 65761  53.1590 259.2677 0001409  87.5609 272.5561 15.49335397  5324
KUIPER-00120            
1 65762U 25217A   25294.91667824 -.00193987  00000+0 -66783-2 0  9998
2 65762  51.8646 315.3360 0009032 202.5573 303.7418 15.30265561  5057
KUIPER-00132            
1 65763U 25217B   25294.86871823  .00039360  00000+0  11202-2 0  9997
2 65763  51.8646 315.3385 0006050 190.5078 169.5782 15.35723815  4066
KUIPER-00133            
1 65764U 25217C   25294.91667824 -.00944652  00000+0 -33687-1 0  9999
2 65764  51.8665 315.3248 0007734 204.7156 322.0926 15.31246177  4705
KUIPER-00139            
1 65765U 25217D   25294.87219115  .00074121  00000+0  21032-2 0  9996
2 65765  51.8668 315.3657 0006280 196.0825 163.9962 15.35528901  4067
KUIPER-00142            
1 65766U 25217E   25294.91732706  .00033583  00000+0  93091-3 0  9990
2 65766  51.8707 314.9274 0003100 147.2045 212.9135 15.36633565  4074
KUIPER-00145            
1 65767U 25217F   25294.92035839  .00033158  00000+0  92508-3 0  9995
2 65767  51.8722 314.9475 0003535 164.8611 195.2481 15.36437859  4076
KUIPER-00147            
1 65768U 25217G   25294.87064875  .00042132  00000+0  12029-2 0  9993
2 65768  51.8656 315.3532 0006723 188.9639 171.1228 15.35589028  4067
KUIPER-00148            
1 65769U 25217H   25294.88294601  .00037382  00000+0  10964-2 0  9994
2 65769  51.8605 315.4230 0009516 204.9795 155.0732 15.34777607  4065
KUIPER-00150            
1 65770U 25217J   25294.88079938  .00056567  00000+0  16417-2 0  9995
2 65770  51.8591 315.4072 0008777 203.4057 156.6530 15.34927698  4068
KUIPER-00151            
1 65771U 25217K   25294.92389984  .00022248  00000+0  62818-3 0  9992
2 65771  51.8701 314.9685 0004898 170.3430 189.7651 15.36281288  4075
KUIPER-00152            
1 65772U 25217L   25294.90457039  .00054602  00000+0  14695-2 0  9996
2 65772  51.8733 314.8402 0002715  94.1252 266.0045 15.37327460  4078
KUIPER-00153            
1 65773U 25217M   25294.87719245  .00077249  00000+0  22123-2 0  9990
2 65773  51.8631 315.3919 0007434 195.7362 164.3393 15.35214093  4068
KUIPER-00155            
1 65774U 25217N   25294.86453899  .00057768  00000+0  16289-2 0  9990
2 65774  51.8670 315.3156 0005190 180.7919 179.3059 15.35844336  4068
KUIPER-00156            
1 65775U 25217P   25294.90956328  .00046193  00000+0  12537-2 0  9993
2 65775  51.8734 314.8754 0003120 102.0081 258.1255 15.37140856  4079
